COMMENT,ORIGINATOR,NORAD_CAT_ID,OBJECT_NAME,OBJECT_TYPE,CLASSIFICATION_TYPE,INTLDES,EPOCH,EPOCH_MICROSECONDS,MEAN_MOTION,ECCENTRICITY,INCLINATION,RA_OF_ASC_NODE,ARG_OF_PERICENTER,MEAN_ANOMALY,EPHEMERIS_TYPE,ELEMENT_SET_NO,REV_AT_EPOCH,BSTAR,MEAN_MOTION_DOT,MEAN_MOTION_DDOT,FILE,TLE_LINE0,TLE_LINE1,TLE_LINE2,OBJECT_ID,OBJECT_NUMBER,SEMIMAJOR_AXIS,PERIOD,APOGEE,PERIGEE
"GENERATED VIA SPACETRACK.ORG API","JSPOC","12159","SL-6 R/B(2)","ROCKET BODY","U","81009D","2016-01-11 22:05:49","784640","2.06701456","0.6757066","64.4015","150.4413","255.1184","348.462","0","999","25589","0","-3.09e-06","0","1979502","0 SL-6 R/B(2)","1 12159U 81009D   16011.92071510 -.00000309 +00000-0 +00000-0 0  9993","2 12159 064.4015 150.4413 6757066 255.1184 348.4620 02.06701456255898","1981-009D","12159","26031.916","696.656","37243.720","2063.843"
"GENERATED VIA SPACETRACK.ORG API","JSPOC","10676","COSMOS 990","PAYLOAD","U","78019A","2016-01-11 22:05:54","221280","14.36052146","0.0015902","74.0409","307.1495","135.9339","224.3085","0","999","98307","2.8743e-05","5.8e-07","0","1979502","0 COSMOS 990","1 10676U 78019A   16011.92076645 +.00000058 +00000-0 +28743-4 0  9994","2 10676 074.0409 307.1495 0015902 135.9339 224.3085 14.36052146983078","1978-019A","10676","7149.709","100.274","782.943","760.204"
"GENERATED VIA SPACETRACK.ORG API","JSPOC","10591","SL-8 R/B","ROCKET BODY","U","78005J","2016-01-11 22:05:55","772160","12.23312429","0.0145461","74.0334","171.8225","218.2265","311.5737","0","999","26748","0.00049894","4.1e-07","0","1979502","0 SL-8 R/B","1 10591U 78005J   16011.92078440 +.00000041 +00000-0 +49894-3 0  9991","2 10591 074.0334 171.8225 0145461 218.2265 311.5737 12.23312429267485","1978-005J","10591","7956.283","117.713","1693.881","1462.415"
"GENERATED VIA SPACETRACK.ORG API","JSPOC","27559","ALSAT 1","PAYLOAD","U","02054A","2016-01-11 22:05:56","916960","14.71884381","0.0021262","97.7814","182.1093","229.5436","302.872","0","999","70229","6.5306e-05","3.62e-06","0","1979502","0 ALSAT 1","1 27559U 02054A   16011.92079765 +.00000362 +00000-0 +65306-4 0  9998","2 27559 097.7814 182.1093 0021262 229.5436 302.8720 14.71884381702291","2002-054A","27559","7033.195","97.833","670.014","640.106"
"GENERATED VIA SPACETRACK.ORG API","JSPOC","27704","NAVSTAR 52 (USA 168)","PAYLOAD","U","03010A","2016-01-11 22:06:00","622656","2.00561125","0.0231736","53.5957","119.9255","254.555","40.4261","0","999","9370","0","8e-08","0","1979502","0 NAVSTAR 52 (USA 168)","1 27704U 03010A   16011.92084054 +.00000008 +00000-0 +00000-0 0  9993","2 27704 053.5957 119.9255 0231736 254.5550 040.4261 02.00561125093704","2003-010A","27704","26560.566","717.985","20797.935","19566.927"
"GENERATED VIA SPACETRACK.ORG API","JSPOC","11297","COSMOS 1082","PAYLOAD","U","79024B","2016-01-11 22:06:22","682304","12.54908158","0.0027145","74.0315","194.0649","215.1292","319.9295","0","999","28689","-4.3474e-05","-2.3e-07","0","1979502","0 COSMOS 1082","1 11297U 79024B   16011.92109586 -.00000023 +00000-0 -43474-4 0  9994","2 11297 074.0315 194.0649 0027145 215.1292 319.9295 12.54908158286890","1979-024B","11297","7822.169","114.749","1465.267","1422.801"
"GENERATED VIA SPACETRACK.ORG API","JSPOC","29051","FORMOSAT 3E","PAYLOAD","U","06011E","2016-01-11 22:06:27","546624","14.28431701","0.0069314","72.0056","152.9348","204.7138","155.0674","0","999","51103","7.4294e-05","1.49e-06","0","1979214","0 FORMOSAT 3E","1 29051U 06011E   16011.92115216  .00000149  00000-0  74294-4 0  9995","2 29051  72.0056 152.9348 0069314 204.7138 155.0674 14.28431701511038","2006-011E","29051","7175.114","100.809","846.713","747.246"
"GENERATED VIA SPACETRACK.ORG API","JSPOC","3094","DELTA 1 R/B","ROCKET BODY","U","68002B","2016-01-11 22:06:33","616224","12.85060467","0.0313109","105.8065","180.9023","123.4112","40.5243","0","999","25058","-2.6525e-06","-7.6e-07","0","1979502","0 DELTA 1 R/B","1  3094U 68002B   16011.92122241 -.00000076 +00000-0 -26525-5 0  9994","2  3094 105.8065 180.9023 0313109 123.4112 040.5243 12.85060467250584","1968-002B","3094","7699.327","112.056","1562.265","1080.119"
"GENERATED VIA SPACETRACK.ORG API","JSPOC","25735","TERRIERS","PAYLOAD","U","99026A","2016-01-11 22:06:40","861728","15.41874398","0.0006552","97.1289","180.1933","111.0149","48.4999","0","999","92564","0.00012006","5.016e-05","0","1979502","0 TERRIERS","1 25735U 99026A   16011.92130627 +.00005016 +00000-0 +12006-3 0  9991","2 25735 097.1289 180.1933 0006552 111.0149 048.4999 15.41874398925649","1999-026A","25735","6818.714","93.392","445.047","436.111"
"GENERATED VIA SPACETRACK.ORG API","JSPOC","16760","COSMOS 1750","PAYLOAD","U","86042C","2016-01-11 22:06:45","172224","12.56108949","0.0040142","74.0156","181.5802","246.9318","267.8721","0","999","35727","-8.3555e-05","-3e-07","0","1979502","0 COSMOS 1750","1 16760U 86042C   16011.92135616 -.00000030 +00000-0 -83555-4 0  9997","2 16760 074.0156 181.5802 0040142 246.9318 267.8721 12.56108949357276","1986-042C","16760","7817.183","114.639","1470.428","1407.668"
"GENERATED VIA SPACETRACK.ORG API","JSPOC","5549","COSMOS 446","PAYLOAD","U","71086C","2016-01-11 22:06:47","950848","12.54404216","0.0082921","74.0258","182.7627","111.8727","41.9838","0","999","2608","-6.9465e-05","-2.7e-07","0","1979502","0 COSMOS 446","1  5549U 71086C   16011.92138832 -.00000027 +00000-0 -69465-4 0  9995","2  5549 074.0258 182.7627 0082921 111.8727 041.9838 12.54404216026081","1971-086C","5549","7824.264","114.795","1511.008","1381.249"
"GENERATED VIA SPACETRACK.ORG API","JSPOC","21398","SL-14 R/B","ROCKET BODY","U","91039B","2016-01-11 22:06:51","640992","14.79563116","0.0023087","82.5229","352.3121","94.1934","296.0546","0","999","30564","1.8179e-05","1.6e-06","0","1979502","0 SL-14 R/B","1 21398U 91039B   16011.92143103 +.00000160 +00000-0 +18179-4 0  9994","2 21398 082.5229 352.3121 0023087 094.1934 296.0546 14.79563116305643","1991-039B","21398","7008.840","97.326","646.886","614.524"
"GENERATED VIA SPACETRACK.ORG API","JSPOC","15427","NOAA 9","PAYLOAD","U","84123A","2016-01-11 22:06:56","946816","14.15931105","0.0015234","98.744","317.813","15.6883","28.0701","0","999","60423","4.163e-05","3.9e-07","0","1979502","0 NOAA 9","1 15427U 84123A   16011.92149244 +.00000039 +00000-0 +41630-4 0  9991","2 15427 098.7440 317.8130 0015234 015.6883 028.0701 14.15931105604235","1984-123A","15427","7217.283","101.699","850.143","828.153"
"GENERATED VIA SPACETRACK.ORG API","JSPOC","26383","CZ-3A R/B","ROCKET BODY","U","00032B","2016-01-11 22:06:56","887200","3.40987019","0.646088","27.1626","232.9304","25.8891","355.7327","0","999","15913","0.0012878","0.00016992","0","1979502","0 CZ-3A R/B","1 26383U 00032B   16011.92149175 +.00016992 +00000-0 +12878-2 0  9999","2 26383 027.1626 232.9304 6460880 025.8891 355.7327 03.40987019159138","2000-032B","26383","18645.610","422.303","24314.180","220.770"
"GENERATED VIA SPACETRACK.ORG API","JSPOC","2651","OPS 9324 (IDSCS 11)","PAYLOAD","U","67003D","2016-01-11 22:07:00","802848","1.08105833","0.0034054","1.7136","47.5938","20.6141","82.7864","0","999","9911","0","-1.21e-06","0","1979214","0 OPS 9324 (IDSCS 11)","1 02651U 67003D   16011.92153707 -.00000121  00000-0  00000+0 0  9997","2 02651   1.7136  47.5938 0034054  20.6141  82.7864  1.08105833 99114","1967-003D","2651","40102.282","1332.028","33860.711","33587.582"
"GENERATED VIA SPACETRACK.ORG API","JSPOC","2651","OPS 9324 (IDSCS 11)","PAYLOAD","U","67003D","2016-01-11 22:07:00","802848","1.08105833","0.0034054","1.7136","47.5938","20.6141","82.7864","0","999","9956","0","-1.21e-06","0","1979502","0 OPS 9324 (IDSCS 11)","1  2651U 67003D   16011.92153707 -.00000121 +00000-0 +00000-0 0  9998","2  2651 001.7136 047.5938 0034054 020.6141 082.7864 01.08105833099563","1967-003D","2651","40102.282","1332.028","33860.711","33587.582"
"GENERATED VIA SPACETRACK.ORG API","JSPOC","18790","COSMOS 1911","PAYLOAD","U","88002C","2016-01-11 22:07:09","196608","12.64304883","0.0008596","82.6088","158.3451","155.5339","7.6752","0","999","29157","-4.2052e-05","3e-08","0","1979502","0 COSMOS 1911","1 18790U 88002C   16011.92163422 +.00000003 +00000-0 -42052-4 0  9992","2 18790 082.6088 158.3451 0008596 155.5339 007.6752 12.64304883291575","1988-002C","18790","7783.363","113.896","1411.918","1398.537"
"GENERATED VIA SPACETRACK.ORG API","JSPOC","28629","EXPRESS AM-2","PAYLOAD","U","05010A","2016-01-11 22:07:32","968704","1.00270807","1.3e-05","1.2748","81.3904","269.2062","172.1728","0","999","279","0","-1.37e-06","0","1979502","0 EXPRESS AM-2","1 28629U 05010A   16011.92190936 -.00000137 +00000-0 +00000-0 0  9993","2 28629 001.2748 081.3904 0000130 269.2062 172.1728 01.00270807002798","2005-010A","28629","42165.006","1436.110","35787.419","35786.322"
"GENERATED VIA SPACETRACK.ORG API","JSPOC","26549","SAUDISAT 1B","PAYLOAD","U","00057E","2016-01-11 22:07:34","32288","14.83053313","0.0049895","64.5552","297.5148","308.5697","51.0944","0","999","82597","7.0432e-05","4.34e-06","0","1979502","0 SAUDISAT 1B","1 26549U 00057E   16011.92192167 +.00000434 +00000-0 +70432-4 0  9995","2 26549 064.5552 297.5148 0049895 308.5697 051.0944 14.83053313825979","2000-057E","26549","6997.839","97.096","654.620","584.789"
"GENERATED VIA SPACETRACK.ORG API","JSPOC","6173","TRIAD 1","PAYLOAD","U","72069A","2016-01-11 22:07:35","446656","14.4862322","0.0055446","89.8523","238.6028","71.4648","55.6948","0","999","27870","6.2756e-05","2.55e-06","0","1979502","0 TRIAD 1","1  6173U 72069A   16011.92193804 +.00000255 +00000-0 +62756-4 0  9998","2  6173 089.8523 238.6028 0055446 071.4648 055.6948 14.48623220278700","1972-069A","6173","7108.285","99.404","769.563","690.738"
